MALLIGYONG-1            
1 58400U 23179A   23341.79646928  .00004562  00000+0  20594-3 0  9992
2 58400  97.4268 226.3598 0014584 217.2234 142.7992 15.21394470  2465
